ALOS (DAICHI)           
1 28931U 06002A   25351.46182720  .00001152  00000+0  20268-3 0  9996
2 28931  98.1098 302.9160 0001349 113.7894 246.3454 14.69501207 61405
H-2A R/B                
1 28932U 06002B   25351.34383345  .00008808  00000+0  46274-3 0  9990
2 28932  98.2313 126.4683 0054659 160.7673 199.5637 15.14662423 81969
RESURS-DK 1             
1 29228U 06021A   25351.59308726  .00002266  00000+0  13713-3 0  9991
2 29228  69.9338  89.2957 0006922 255.5568 104.4830 15.12188609 75113
CZ-4B R/B               
1 29507U 06046C   25351.58781521  .00004350  00000+0  22740-3 0  9991
2 29507  97.5734  31.7136 0033692 189.4501 170.6102 15.15921459 47608
CZ-2C R/B               
1 31114U 07010B   25351.29812703  .00000118  00000+0  73242-4 0  9997
2 31114  98.3975 103.7195 0059248 172.7267 187.4784 14.20211822968026
COSMO-SKYMED 1          
1 31598U 07023A   25351.60468542  .00003548  00000+0  32319-3 0  9999
2 31598  97.8835 177.0355 0001545  87.7743 272.3655 14.95803152  2636
COSMOS 2428             
1 31792U 07029A   25351.48182259  .00000137  00000+0  99351-4 0  9996
2 31792  70.9365  15.9234 0003933  16.7642 343.3608 14.12891368952480
SL-16 R/B               
1 31793U 07029B   25351.41868932  .00000100  00000+0  76777-4 0  9996
2 31793  70.9755 345.3218 0001997 261.9214 208.1373 14.14815117953739
KORONAS-FOTON           
1 33504U 09003A   25351.49392481  .00009421  00000+0  22468-3 0  9993
2 33504  82.4307   1.1795 0013410  93.5075 266.7705 15.41298315933076
CZ-2C R/B               
1 37731U 11030B   25351.46831197  .00001238  00000+0  16358-3 0  9990
2 37731  97.8418 305.4703 0051313 257.8038 215.1938 14.80917055777929
H-2A R/B                
1 38341U 12025E   25351.59433420  .00001699  00000+0  16091-3 0  9999
2 38341  98.4604 307.1989 0044026 220.1385 139.6578 14.94480464735958
SHIJIAN-16 (SJ-16)      
1 39358U 13057A   25351.63140234  .00001072  00000+0  10832-3 0  9999
2 39358  74.9729 340.3997 0017769 308.3001  51.6588 14.91998202659264
