CCSDS_OMM_VERS = 2.0
CREATION_DATE  = 
ORIGINATOR     = 

OBJECT_NAME    = ALOS (DAICHI)
OBJECT_ID      = 2006-002A
CENTER_NAME    = EARTH
REF_FRAME      = TEME
TIME_SYSTEM    = UTC
MEAN_ELEMENT_THEORY = SGP/SGP4

EPOCH          = 2025-12-17T11:05:01.870080
MEAN_MOTION    = 14.69501207
ECCENTRICITY   = .00013498
INCLINATION    = 98.1098
RA_OF_ASC_NODE = 302.9160
ARG_OF_PERICENTER = 113.7894
MEAN_ANOMALY   = 246.3454

EPHEMERIS_TYPE = 0
CLASSIFICATION_TYPE = U
NORAD_CAT_ID   = 28931
ELEMENT_SET_NO = 999
REV_AT_EPOCH   = 6140
BSTAR          = .20268188E-3
MEAN_MOTION_DOT = .1152E-4
MEAN_MOTION_DDOT = 0

CCSDS_OMM_VERS = 2.0
CREATION_DATE  = 
ORIGINATOR     = 

OBJECT_NAME    = H-2A R/B
OBJECT_ID      = 2006-002B
CENTER_NAME    = EARTH
REF_FRAME      = TEME
TIME_SYSTEM    = UTC
MEAN_ELEMENT_THEORY = SGP/SGP4

EPOCH          = 2025-12-17T08:15:07.210080
MEAN_MOTION    = 15.14662423
ECCENTRICITY   = .00546599
INCLINATION    = 98.2313
RA_OF_ASC_NODE = 126.4683
ARG_OF_PERICENTER = 160.7673
MEAN_ANOMALY   = 199.5637

EPHEMERIS_TYPE = 0
CLASSIFICATION_TYPE = U
NORAD_CAT_ID   = 28932
ELEMENT_SET_NO = 999
REV_AT_EPOCH   = 8196
BSTAR          = .46274414E-3
MEAN_MOTION_DOT = .8808E-4
MEAN_MOTION_DDOT = 0

CCSDS_OMM_VERS = 2.0
CREATION_DATE  = 
ORIGINATOR     = 

OBJECT_NAME    = RESURS-DK 1
OBJECT_ID      = 2006-021A
CENTER_NAME    = EARTH
REF_FRAME      = TEME
TIME_SYSTEM    = UTC
MEAN_ELEMENT_THEORY = SGP/SGP4

EPOCH          = 2025-12-17T14:14:02.739264
MEAN_MOTION    = 15.12188609
ECCENTRICITY   = .00069222
INCLINATION    = 69.9338
RA_OF_ASC_NODE = 89.2957
ARG_OF_PERICENTER = 255.5568
MEAN_ANOMALY   = 104.4830

EPHEMERIS_TYPE = 0
CLASSIFICATION_TYPE = U
NORAD_CAT_ID   = 29228
ELEMENT_SET_NO = 999
REV_AT_EPOCH   = 7511
BSTAR          = .13712567E-3
MEAN_MOTION_DOT = .2266E-4
MEAN_MOTION_DDOT = 0

CCSDS_OMM_VERS = 2.0
CREATION_DATE  = 
ORIGINATOR     = 

OBJECT_NAME    = CZ-4B R/B
OBJECT_ID      = 2006-046C
CENTER_NAME    = EARTH
REF_FRAME      = TEME
TIME_SYSTEM    = UTC
MEAN_ELEMENT_THEORY = SGP/SGP4

EPOCH          = 2025-12-17T14:06:27.234144
MEAN_MOTION    = 15.15921459
ECCENTRICITY   = .00336928
INCLINATION    = 97.5734
RA_OF_ASC_NODE = 31.7136
ARG_OF_PERICENTER = 189.4501
MEAN_ANOMALY   = 170.6102

EPHEMERIS_TYPE = 0
CLASSIFICATION_TYPE = U
NORAD_CAT_ID   = 29507
ELEMENT_SET_NO = 999
REV_AT_EPOCH   = 4760
BSTAR          = .22739556E-3
MEAN_MOTION_DOT = .435E-4
MEAN_MOTION_DDOT = 0

CCSDS_OMM_VERS = 2.0
CREATION_DATE  = 
ORIGINATOR     = 

OBJECT_NAME    = CZ-2C R/B
OBJECT_ID      = 2007-010B
CENTER_NAME    = EARTH
REF_FRAME      = TEME
TIME_SYSTEM    = UTC
MEAN_ELEMENT_THEORY = SGP/SGP4

EPOCH          = 2025-12-17T07:09:18.175392
MEAN_MOTION    = 14.20211822
ECCENTRICITY   = .00592487
INCLINATION    = 98.3975
RA_OF_ASC_NODE = 103.7195
ARG_OF_PERICENTER = 172.7267
MEAN_ANOMALY   = 187.4784

EPHEMERIS_TYPE = 0
CLASSIFICATION_TYPE = U
NORAD_CAT_ID   = 31114
ELEMENT_SET_NO = 999
REV_AT_EPOCH   = 96802
BSTAR          = .73241676E-4
MEAN_MOTION_DOT = .118E-5
MEAN_MOTION_DDOT = 0

CCSDS_OMM_VERS = 2.0
CREATION_DATE  = 
ORIGINATOR     = 

OBJECT_NAME    = COSMO-SKYMED 1
OBJECT_ID      = 2007-023A
CENTER_NAME    = EARTH
REF_FRAME      = TEME
TIME_SYSTEM    = UTC
MEAN_ELEMENT_THEORY = SGP/SGP4

EPOCH          = 2025-12-17T14:30:44.820288
MEAN_MOTION    = 14.95803152
ECCENTRICITY   = .00015453
INCLINATION    = 97.8835
RA_OF_ASC_NODE = 177.0355
ARG_OF_PERICENTER = 87.7743
MEAN_ANOMALY   = 272.3655

EPHEMERIS_TYPE = 0
CLASSIFICATION_TYPE = U
NORAD_CAT_ID   = 31598
ELEMENT_SET_NO = 999
REV_AT_EPOCH   = 263
BSTAR          = .32318778E-3
MEAN_MOTION_DOT = .3548E-4
MEAN_MOTION_DDOT = 0

CCSDS_OMM_VERS = 2.0
CREATION_DATE  = 
ORIGINATOR     = 

OBJECT_NAME    = COSMOS 2428
OBJECT_ID      = 2007-029A
CENTER_NAME    = EARTH
REF_FRAME      = TEME
TIME_SYSTEM    = UTC
MEAN_ELEMENT_THEORY = SGP/SGP4

EPOCH          = 2025-12-17T11:33:49.471776
MEAN_MOTION    = 14.12891368
ECCENTRICITY   = .00039332
INCLINATION    = 70.9365
RA_OF_ASC_NODE = 15.9234
ARG_OF_PERICENTER = 16.7642
MEAN_ANOMALY   = 343.3608

EPHEMERIS_TYPE = 0
CLASSIFICATION_TYPE = U
NORAD_CAT_ID   = 31792
ELEMENT_SET_NO = 999
REV_AT_EPOCH   = 95248
BSTAR          = .99350805E-4
MEAN_MOTION_DOT = .137E-5
MEAN_MOTION_DDOT = 0

CCSDS_OMM_VERS = 2.0
CREATION_DATE  = 
ORIGINATOR     = 

OBJECT_NAME    = SL-16 R/B
OBJECT_ID      = 2007-029B
CENTER_NAME    = EARTH
REF_FRAME      = TEME
TIME_SYSTEM    = UTC
MEAN_ELEMENT_THEORY = SGP/SGP4

EPOCH          = 2025-12-17T10:02:54.757248
MEAN_MOTION    = 14.14815117
ECCENTRICITY   = .00019972
INCLINATION    = 70.9755
RA_OF_ASC_NODE = 345.3218
ARG_OF_PERICENTER = 261.9214
MEAN_ANOMALY   = 208.1373

EPHEMERIS_TYPE = 0
CLASSIFICATION_TYPE = U
NORAD_CAT_ID   = 31793
ELEMENT_SET_NO = 999
REV_AT_EPOCH   = 95373
BSTAR          = .7677708E-4
MEAN_MOTION_DOT = .1E-5
MEAN_MOTION_DDOT = 0

CCSDS_OMM_VERS = 2.0
CREATION_DATE  = 
ORIGINATOR     = 

OBJECT_NAME    = KORONAS-FOTON
OBJECT_ID      = 2009-003A
CENTER_NAME    = EARTH
REF_FRAME      = TEME
TIME_SYSTEM    = UTC
MEAN_ELEMENT_THEORY = SGP/SGP4

EPOCH          = 2025-12-17T11:51:15.103584
MEAN_MOTION    = 15.41298315
ECCENTRICITY   = .00134104
INCLINATION    = 82.4307
RA_OF_ASC_NODE = 1.1795
ARG_OF_PERICENTER = 93.5075
MEAN_ANOMALY   = 266.7705

EPHEMERIS_TYPE = 0
CLASSIFICATION_TYPE = U
NORAD_CAT_ID   = 33504
ELEMENT_SET_NO = 999
REV_AT_EPOCH   = 93307
BSTAR          = .22468155E-3
MEAN_MOTION_DOT = .9421E-4
MEAN_MOTION_DDOT = 0

CCSDS_OMM_VERS = 2.0
CREATION_DATE  = 
ORIGINATOR     = 

OBJECT_NAME    = CZ-2C R/B
OBJECT_ID      = 2011-030B
CENTER_NAME    = EARTH
REF_FRAME      = TEME
TIME_SYSTEM    = UTC
MEAN_ELEMENT_THEORY = SGP/SGP4

EPOCH          = 2025-12-17T11:14:22.154208
MEAN_MOTION    = 14.80917055
ECCENTRICITY   = .00513133
INCLINATION    = 97.8418
RA_OF_ASC_NODE = 305.4703
ARG_OF_PERICENTER = 257.8038
MEAN_ANOMALY   = 215.1938

EPHEMERIS_TYPE = 0
CLASSIFICATION_TYPE = U
NORAD_CAT_ID   = 37731
ELEMENT_SET_NO = 999
REV_AT_EPOCH   = 77792
BSTAR          = .16357622E-3
MEAN_MOTION_DOT = .1238E-4
MEAN_MOTION_DDOT = 0

CCSDS_OMM_VERS = 2.0
CREATION_DATE  = 
ORIGINATOR     = 

OBJECT_NAME    = H-2A R/B
OBJECT_ID      = 2012-025E
CENTER_NAME    = EARTH
REF_FRAME      = TEME
TIME_SYSTEM    = UTC
MEAN_ELEMENT_THEORY = SGP/SGP4

EPOCH          = 2025-12-17T14:15:50.474880
MEAN_MOTION    = 14.94480464
ECCENTRICITY   = .00440265
INCLINATION    = 98.4604
RA_OF_ASC_NODE = 307.1989
ARG_OF_PERICENTER = 220.1385
MEAN_ANOMALY   = 139.6578

EPHEMERIS_TYPE = 0
CLASSIFICATION_TYPE = U
NORAD_CAT_ID   = 38341
ELEMENT_SET_NO = 999
REV_AT_EPOCH   = 73595
BSTAR          = .1609137E-3
MEAN_MOTION_DOT = .1699E-4
MEAN_MOTION_DDOT = 0

CCSDS_OMM_VERS = 2.0
CREATION_DATE  = 
ORIGINATOR     = 

OBJECT_NAME    = SHIJIAN-16 (SJ-16)
OBJECT_ID      = 2013-057A
CENTER_NAME    = EARTH
REF_FRAME      = TEME
TIME_SYSTEM    = UTC
MEAN_ELEMENT_THEORY = SGP/SGP4

EPOCH          = 2025-12-17T15:09:13.162176
MEAN_MOTION    = 14.91998202
ECCENTRICITY   = .00177697
INCLINATION    = 74.9729
RA_OF_ASC_NODE = 340.3997
ARG_OF_PERICENTER = 308.3001
MEAN_ANOMALY   = 51.6588

EPHEMERIS_TYPE = 0
CLASSIFICATION_TYPE = U
NORAD_CAT_ID   = 39358
ELEMENT_SET_NO = 999
REV_AT_EPOCH   = 65926
BSTAR          = .10831892E-3
MEAN_MOTION_DOT = .1072E-4
MEAN_MOTION_DDOT = 0

